CELESTIS-17 & SHERPA-FX1
1 47486U 21006CB  26068.64311433  .00007207  00000+0  24301-3 0  9993
2 47486  97.2397 112.1052 0006630 178.1385 181.9882 15.30994801284065
STARLINK-31047          
1 58783U 24011U   26068.04255429  .00000501  00000+0  29031-4 0  9996
2 58783  53.1608   1.1321 0000866  94.8099 265.3001 15.30194233120385
